date:2024-08-30T03:18:27+00:00
validtle:1
satid:53825
launchyear:2022
epoch:24241.84405583
epochday:241
tleage:2
tleclassification:U
active:1
name:STARLINK-4751
meananomly:283.7706
meanmotion:15.0886
rightascension:0.0000
declination:0.0000
semimajoraxis:6917.834036253
altitudeatperigee:539
altitudeatapogee:540
inclination:53.2142
eccentricity:0.0001068
argumentofperigree:76.3405
nickname:STARLINK-4751
idesg:22114H  
cosparid:2022-114H
altkm:540.41831342598
velkms:7.5934415390657
velkmh:27336
onumepoch:10861
onumnow:163895.63
otype:1
otypedesc:Low Earth Orbit (LEO)
status:1
timestamp:2024-08-28T20:15:26+00:00
nowjuliandate:2460552.6378184
nowepochdate:24243.09.1378125
TLE:
STARLINK-4751
1 53825U 22114H   24241.84405583  .00011105  00000+0  71440-3 0  9999
2 53825  53.2142 288.5275 0001068  76.3405 283.7706 15.08855840108612